[{"OBJECT_NAME":"GEOSCAN 4 (RS92S4)","OBJECT_ID":"2025-155S","EPOCH":"2026-03-09T21:50:07.724832","MEAN_MOTION":15.30369837,"ECCENTRICITY":0.00070968,"INCLINATION":97.4465,"RA_OF_ASC_NODE":37.7626,"ARG_OF_PERICENTER":154.7045,"MEAN_ANOMALY":205.4544,"EPHEMERIS_TYPE":0,"CLASSIFICATION_TYPE":"U","NORAD_CAT_ID":64892,"ELEMENT_SET_NO":999,"REV_AT_EPOCH":6562,"BSTAR":0.00068609503,"MEAN_MOTION_DOT":0.00020121,"MEAN_MOTION_DDOT":0},{"OBJECT_NAME":"STARLINK-35407","OBJECT_ID":"2025-253R","EPOCH":"2026-03-09T11:15:16.781472","MEAN_MOTION":15.27588831,"ECCENTRICITY":0.00016378,"INCLINATION":42.9964,"RA_OF_ASC_NODE":213.5,"ARG_OF_PERICENTER":213.2147,"MEAN_ANOMALY":146.8603,"EPHEMERIS_TYPE":0,"CLASSIFICATION_TYPE":"U","NORAD_CAT_ID":66334,"ELEMENT_SET_NO":999,"REV_AT_EPOCH":2021,"BSTAR":0.00094235989,"MEAN_MOTION_DOT":0.00025768,"MEAN_MOTION_DDOT":0}]
